H1 CPF  1  HTS 2022  4 11 12  6011 larets           NONE
H2  0304206 5557    27944 2022 04 11  0  0  0 2022 04 16  0  0  0   180 1 1  0 0 0
H5  0.0560 
H9 
10 0 59683  33480.00000  0      97530.746    3170129.882    6290899.958
10 0 59683  33660.00000  0     612820.959    4231274.730    5601195.093
10 0 59683  33840.00000  0    1131380.179    5124304.044    4705427.472
10 0 59683  34020.00000  0    1629413.130    5816752.886    3636479.067
10 0 59683  34200.00000  0    2083125.806    6284137.890    2433670.287
10 0 59683  34380.00000  0    2469842.519    6510890.054    1141295.351
10 0 59683  34560.00000  0    2769097.689    6490908.777    -193060.821
10 0 59683  34740.00000  0    2963646.063    6227707.772   -1520337.776
10 0 59683  34920.00000  0    3040340.302    5734154.306   -2791864.910
10 0 59683  35100.00000  0    2990830.465    5031817.645   -3961194.890
10 0 59683  35280.00000  0    2812047.949    4149964.017   -4985820.611
10 0 59683  35460.00000  0    2506453.341    3124265.732   -5828698.416
10 0 59683  35640.00000  0    2082048.117    1995300.943   -6459529.995
10 0 59683  35820.00000  0    1552156.218     806916.700   -6855770.211
10 0 59683  36000.00000  0     934992.745    -395470.267   -7003346.439
10 0 59683  36180.00000  0     253034.240   -1566577.363   -6897092.164
10 0 59683  36360.00000  0    -467786.905   -2662912.414   -6540890.281
10 0 59683  36540.00000  0   -1199039.629   -3644339.426   -5947540.400
10 0 59683  36720.00000  0   -1910880.574   -4475519.578   -5138343.661
10 0 59683  36900.00000  0   -2573237.559   -5127183.453   -4142410.310
10 0 59683  37080.00000  0   -3157056.114   -5577193.917   -2995689.587
10 0 59683  37260.00000  0   -3635557.667   -5811349.155   -1739736.589
10 0 59683  37440.00000  0   -3985455.504   -5823888.104    -420246.128
10 0 59683  37620.00000  0   -4188066.219   -5617662.432     914605.712
10 0 59683  37800.00000  0   -4230253.559   -5203954.206    2215946.870
10 0 59683  37980.00000  0   -4105151.331   -4601939.085    3436043.215
10 0 59683  38160.00000  0   -3812624.016   -3837821.013    4530094.231
10 0 59683  38340.00000  0   -3359440.650   -2943683.510    5457913.036
10 0 59683  38520.00000  0   -2759153.035   -1956116.886    6185416.000
10 0 59683  38700.00000  0   -2031687.869    -914696.283    6685872.224
10 0 59683  38880.00000  0   -1202667.907     139629.272    6940875.926
10 0 59683  39060.00000  0    -302491.354    1166164.137    6941002.681
10 0 59683  39240.00000  0     634790.104    2126046.264    6686152.431
10 0 59683  39420.00000  0    1572767.229    2983734.501    6185567.467
10 0 59683  39600.00000  0    2474096.913    3708345.809    5457520.597
10 0 59683  39780.00000  0    3302005.496    4274802.010    4528680.983
10 0 59683  39960.00000  0    4021816.352    4664738.473    3433159.700
10 0 59683  40140.00000  0    4602435.197    4867137.005    2211265.662
10 0 59683  40320.00000  0    5017725.911    4878649.228     907996.314
10 0 59683  40500.00000  0    5247696.385    4703587.974    -428668.304
10 0 59683  40680.00000  0    5279434.592    4353583.926   -1749600.622
10 0 59683  40860.00000  0    5107738.719    3846926.417   -3006393.548
10 0 59683  41040.00000  0    4735419.625    3207633.123   -4153176.486
10 0 59683  41220.00000  0    4173262.315    2464304.807   -5148300.907
10 0 59683  41400.00000  0    3439660.142    1648826.878   -5955825.648
10 0 59683  41580.00000  0    2559951.447     794989.511   -6546752.065
10 0 59683  41760.00000  0    1565496.357     -62906.568   -6899981.061
10 0 59683  41940.00000  0     492542.808    -891403.106   -7002982.656
10 0 59683  42120.00000  0    -619083.460   -1659154.226   -6852179.141
10 0 59683  42300.00000  0   -1727421.668   -2338072.657   -6453040.240
10 0 59683  42480.00000  0   -2789914.386   -2904327.942   -5819899.397
10 0 59683  42660.00000  0   -3764999.507   -3339169.769   -4975490.045
10 0 59683  42840.00000  0   -4613716.877   -3629556.231   -3950205.534
10 0 59683  43020.00000  0   -5301271.708   -3768559.805   -2781080.427
10 0 59683  43200.00000  0   -5798490.249   -3755530.792   -1510513.725
10 0 59683  43380.00000  0   -6083098.279   -3596004.136    -184763.364
10 0 59683  43560.00000  0   -6140754.227   -3301346.854    1147737.305
10 0 59683  43740.00000  0   -5965776.473   -2888157.161    2438179.327
10 0 59683  43920.00000  0   -5561511.811   -2377438.095    3639213.334
10 0 59683  44100.00000  0   -4940327.017   -1793591.229    4706732.052
10 0 59683  44280.00000  0   -4123219.353   -1163279.528    5601522.096
10 0 59683  44460.00000  0   -3139075.598    -514224.298    6290712.515
10 0 59683  44640.00000  0   -2023614.023     126009.351    6748980.309
10 0 59683  44820.00000  0    -818049.707     731182.512    6959464.554
10 0 59683  45000.00000  0     432451.654    1277456.387    6914369.892
10 0 59683  45180.00000  0    1680477.993    1744337.223    6615252.351
10 0 59683  45360.00000  0    2878180.532    2115457.219    6072978.160
10 0 59683  45540.00000  0    3979128.693    2379162.128    5307356.254
10 0 59683  45720.00000  0    4940146.929    2528887.078    4346445.666
10 0 59683  45900.00000  0    5723060.321    2563307.765    3225552.048
10 0 59683  46080.00000  0    6296278.243    2486254.554    1985928.123
10 0 59683  46260.00000  0    6636124.785    2306391.789     673226.905
10 0 59683  46440.00000  0    6727854.998    2036677.763    -664233.444
10 0 59683  46620.00000  0    6566289.299    1693632.451   -1977316.720
10 0 59683  46800.00000  0    6156042.247    1296454.065   -3217931.653
10 0 59683  46980.00000  0    5511340.496     866033.177   -4340834.393
10 0 59683  47160.00000  0    4655439.416     423920.296   -5305284.242
10 0 59683  47340.00000  0    3619689.270      -8695.992   -6076484.011
10 0 59683  47520.00000  0    2442312.576    -411950.984   -6626766.776
10 0 59683  47700.00000  0    1166949.621    -768167.165   -6936504.155
10 0 59683  47880.00000  0    -158962.111   -1062588.194   -6994725.771
10 0 59683  48060.00000  0   -1485923.873   -1283958.719   -6799450.993
10 0 59683  48240.00000  0   -2764173.827   -1424936.282   -6357735.969
10 0 59683  48420.00000  0   -3945500.150   -1482325.601   -5685437.121
10 0 59683  48600.00000  0   -4985021.939   -1457131.093   -4806700.523
10 0 59683  48780.00000  0   -5842892.988   -1354425.571   -3753171.714
10 0 59683  48960.00000  0   -6485861.755   -1183036.908   -2562932.005
10 0 59683  49140.00000  0   -6888622.202    -955061.645   -1279178.537
10 0 59683  49320.00000  0   -7034884.967    -685223.082      51317.464
10 0 59683  49500.00000  0   -6918105.102    -390098.588    1379923.507
10 0 59683  49680.00000  0   -6541816.799     -87255.983    2657955.979
10 0 59683  49860.00000  0   -5919552.410     205655.347    3838510.659
10 0 59683  50040.00000  0   -5074341.819     471813.250    4878229.398
10 0 59683  50220.00000  0   -4037819.715     696081.352    5738919.785
10 0 59683  50400.00000  0   -2848993.817     865775.056    6388964.110
10 0 59683  50580.00000  0   -1552731.295     971297.227    6804474.787
10 0 59683  50760.00000  0    -198026.492    1006617.606    6970156.909
10 0 59683  50940.00000  0    1163873.976     969575.209    6879854.113
10 0 59683  51120.00000  0    2481421.758     861992.214    6536776.237
10 0 59683  51300.00000  0    3704733.758     689595.174    5953402.787
10 0 59683  51480.00000  0    4787511.973     461744.326    5151058.016
10 0 59683  51660.00000  0    5688843.432     190979.252    4159161.699
10 0 59683  51840.00000  0    6374813.121    -107601.759    3014170.991
10 0 59683  52020.00000  0    6819853.994    -417098.235    1758233.385
10 0 59683  52200.00000  0    7007759.393    -719669.634     437601.616
10 0 59683  52380.00000  0    6932309.438    -997455.564    -899124.354
10 0 59683  52560.00000  0    6597470.784   -1233505.603   -2202855.132
10 0 59683  52740.00000  0    6017158.496   -1412667.847   -3425874.560
10 0 59683  52920.00000  0    5214584.189   -1522388.437   -4523619.059
10 0 59683  53100.00000  0    4221238.325   -1553380.834   -5456297.104
10 0 59683  53280.00000  0    3075570.545   -1500137.172   -6190290.060
10 0 59683  53460.00000  0    1821439.786   -1361262.603   -6699290.944
10 0 59683  53640.00000  0     506411.774   -1139619.758   -6965162.502
10 0 59683  53820.00000  0    -820032.833    -842286.309   -6978505.968
10 0 59683  54000.00000  0   -2108319.064    -480328.341   -6738942.130
10 0 59683  54180.00000  0   -3310578.044     -68395.718   -6255107.197
10 0 59683  54360.00000  0   -4382376.029     375848.206   -5544367.328
10 0 59683  54540.00000  0   -5284333.904     832446.545   -4632258.202
10 0 59683  54720.00000  0   -5983587.774    1279997.714   -3551646.799
10 0 59683  54900.00000  0   -6455035.841    1696607.918   -2341621.473
10 0 59683  55080.00000  0   -6682310.126    2060904.971   -1046129.954
10 0 59683  55260.00000  0   -6658422.213    2353068.124     287596.976
10 0 59683  55440.00000  0   -6386035.288    2555820.455    1610782.653
10 0 59683  55620.00000  0   -5877337.833    2655333.043    2874925.046
10 0 59683  55800.00000  0   -5153520.242    2641990.660    4033621.465
10 0 59683  55980.00000  0   -4243878.275    2510973.406    5044313.957
10 0 59683  56160.00000  0   -3184592.585    2262626.414    5869874.975
10 0 59683  56340.00000  0   -2017250.090    1902602.969    6479977.535
10 0 59683  56520.00000  0    -787169.665    1441771.295    6852201.072
10 0 59683  56700.00000  0     458387.035     895888.564    6972834.214
10 0 59683  56880.00000  0    1672045.228     285057.332    6837365.798
10 0 59683  57060.00000  0    2808130.116    -367017.353    6450657.064
10 0 59683  57240.00000  0    3824404.871   -1033949.254    5826789.428
10 0 59683  57420.00000  0    4683676.313   -1687740.512    4988582.066
10 0 59683  57600.00000  0    5355204.606   -2299961.251    3966785.551
10 0 59683  57780.00000  0    5815863.700   -2842990.826    2798969.843
99
